{"fetched_at":"2026-03-30T06:02:59Z","count":15439,"tles":[{"name":"STARLINK-30116","line1":"1 57465U 23107J   26087.70411829  .00009615  00000+0  35814-3 0  9999","line2":"2 57465  43.0048 228.8389 0003710 258.9475 101.0959 15.27609084148054","category":"Starlink"}]}